NORAD_CAT_ID,OBJECT_NAME,OBJECT_TYPE,EPOCH,MEAN_MOTION,ECCENTRICITY,INCLINATION,RA_OF_ASC_NODE,ARG_OF_PERICENTER,MEAN_ANOMALY,BSTAR,MEAN_MOTION_DOT,MEAN_MOTION_DDOT,TLE_LINE0,TLE_LINE1,TLE_LINE2,SEMIMAJOR_AXIS,PERIOD,APOGEE,PERIGEE,DECAYED
52116.0,STARLINK-3735,PAYLOAD,2022-11-08 01:16:08,15.08847197,0.0001335,53.2184,145.3066,66.9281,293.1852,0.00028048,4.18e-05,0.0,0 STARLINK-3735,1 52116U 22029AE  22312.05287865  .00004180  00000-0  28048-3 0  9999,2 52116  53.2184 145.3066 0001335  66.9281 293.1852 15.08847197 36963,6917.858,95.437,540.6469999999998,538.8,0.0
52116.0,STARLINK-3735,PAYLOAD,2022-11-08 06:02:17,15.08853561,0.0001396999999999,53.2174,144.4145,64.4095,295.7042,0.00031249,4.691e-05,0.0,0 STARLINK-3735,1 52116U 22029AE  22312.25159649  .00004691  00000-0  31249-3 0  9993,2 52116  53.2174 144.4145 0001397  64.4095 295.7042 15.08853561 36998,6917.839,95.437,540.67,538.738,0.0
52116.0,STARLINK-3735,PAYLOAD,2022-11-09 18:36:10,15.088410199999998,0.0001688,53.2157,137.5741,69.0032,291.1140000000001,-4.304e-05,-9.73e-06,0.0,0 STARLINK-3735,1 52116U 22029AE  22313.77512449 -.00000973  00000-0 -43040-4 0  9996,2 52116  53.2157 137.5741 0001688  69.0032 291.1140 15.08841020 37222,6917.877,95.437,540.91,538.575,0.0
52116.0,STARLINK-3735,PAYLOAD,2022-11-09 20:11:33,15.08839614,0.0001626999999999,53.2163,137.2773,67.946,292.1705,-6.5543e-05,-1.331e-05,0.0,0 STARLINK-3735,1 52116U 22029AE  22313.84136520 -.00001331  00000-0 -65543-4 0  9997,2 52116  53.2163 137.2773 0001627  67.9460 292.1705 15.08839614 37231,6917.882,95.438,540.872,538.621,0.0
52116.0,STARLINK-3735,PAYLOAD,2022-11-10 05:43:53,15.08823911,0.0001065,53.2169,135.494,87.0366,273.0748,0.000454,6.942e-05,0.0,0 STARLINK-3735,1 52116U 22029AE  22314.23881252  .00006942  00000-0  45400-3 0  9990,2 52116  53.2169 135.4940 0001065  87.0366 273.0748 15.08823911 37291,6917.93,95.439,540.531,539.058,0.0
52116.0,STARLINK-3735,PAYLOAD,2022-11-10 18:26:57,15.08837687,0.0001682,53.2186,133.1149,71.2116,288.9059,0.0001645,2.331e-05,0.0,0 STARLINK-3735,1 52116U 22029AE  22314.76872393  .00002331  00000-0  16450-3 0  9995,2 52116  53.2186 133.1149 0001682  71.2116 288.9059 15.08837687 37373,6917.887,95.438,540.9159999999998,538.589,0.0
52116.0,STARLINK-3735,PAYLOAD,2022-11-10 23:13:07,15.08840259,0.0001694,53.2187,132.2231,70.6973,289.4202,0.00019393,2.8000000000000013e-05,0.0,0 STARLINK-3735,1 52116U 22029AE  22314.96744336  .00002800  00000-0  19393-3 0  9992,2 52116  53.2187 132.2231 0001694  70.6973 289.4202 15.08840259 37402,6917.88,95.438,540.9159999999998,538.573,0.0
52116.0,STARLINK-3735,PAYLOAD,2022-11-11 11:56:12,15.08837043,0.0001710999999999,53.2187,129.8442,71.4807,288.6371,0.00014153,1.965e-05,0.0,0 STARLINK-3735,1 52116U 22029AE  22315.49736793  .00001965  00000-0  14153-3 0  9999,2 52116  53.2187 129.8442 0001711  71.4807 288.6371 15.08837043 37486,6917.889,95.438,540.938,538.571,0.0
52116.0,STARLINK-3735,PAYLOAD,2022-11-11 18:17:45,15.08835407,0.0001684,53.2188,128.6546,71.8394,288.2781,5.9552e-05,6.6e-06,0.0,0 STARLINK-3735,1 52116U 22029AE  22315.76233101  .00000660  00000-0  59552-4 0  9998,2 52116  53.2188 128.6546 0001684  71.8394 288.2781 15.08835407 37521,6917.894,95.438,540.924,538.594,0.0
52116.0,STARLINK-3735,PAYLOAD,2022-11-11 19:53:08,15.08835391,0.0001676999999999,53.2189,128.3574,71.3453,288.7721,5.4302e-05,5.76e-06,0.0,0 STARLINK-3735,1 52116U 22029AE  22315.82857114  .00000576  00000-0  54302-4 0  9995,2 52116  53.2189 128.3574 0001677  71.3453 288.7721 15.08835391 37535,6917.894,95.438,540.92,538.599,0.0
52116.0,STARLINK-3735,PAYLOAD,2022-11-12 11:46:59,15.08842569,0.0001663,53.2189,125.3839,70.3161,289.801,7.9511e-05,9.78e-06,0.0,0 STARLINK-3735,1 52116U 22029AE  22316.49096590  .00000978  00000-0  79511-4 0  9997,2 52116  53.2189 125.3839 0001663  70.3161 289.8010 15.08842569 37635,6917.873000000001,95.437,540.888,538.587,0.0
52116.0,STARLINK-3735,PAYLOAD,2022-11-12 13:22:22,15.08843505,0.0001665,53.2189,125.0865,70.4573,289.6599,8.614299999999999e-05,1.083e-05,0.0,0 STARLINK-3735,1 52116U 22029AE  22316.55720505  .00001083  00000-0  86143-4 0  9991,2 52116  53.2189 125.0865 0001665  70.4573 289.6599 15.08843505 37643,6917.87,95.437,540.887,538.5830000000002,0.0
52116.0,STARLINK-3735,PAYLOAD,2022-11-12 18:08:31,15.08845271,0.0001669,53.2189,124.1945,70.5257,289.5915,9.2574e-05,1.186e-05,0.0,0 STARLINK-3735,1 52116U 22029AE  22316.75592341  .00001186  00000-0  92574-4 0  9997,2 52116  53.2189 124.1945 0001669  70.5257 289.5915 15.08845271 37672,6917.864000000001,95.437,540.884,538.575,0.0
52116.0,STARLINK-3735,PAYLOAD,2022-11-13 11:37:46,15.08839738,0.0001658,53.219,120.9235,70.2386,289.8785,3.8524e-05,3.25e-06,0.0,0 STARLINK-3735,1 52116U 22029AE  22317.48456650  .00000325  00000-0  38524-4 0  9999,2 52116  53.2190 120.9235 0001658  70.2386 289.8785 15.08839738 37789,6917.880999999999,95.438,540.893,538.599,0.0
52116.0,STARLINK-3735,PAYLOAD,2022-11-13 17:59:19,15.08835248,0.0001623,53.2189,119.7341,69.5422,290.5744,5.7128e-05,6.21e-06,0.0,0 STARLINK-3735,1 52116U 22029AE  22317.74952906  .00000621  00000-0  57128-4 0  9993,2 52116  53.2189 119.7341 0001623  69.5422 290.5744 15.08835248 37826,6917.895,95.438,540.883,538.637,0.0
52116.0,STARLINK-3735,PAYLOAD,2022-11-14 03:31:37,15.08839938,0.0001641999999999,53.2191,117.9501,69.4824,290.6344,7.9081e-05,9.71e-06,0.0,0 STARLINK-3735,1 52116U 22029AE  22318.14696600  .00000971  00000-0  79081-4 0  9994,2 52116  53.2191 117.9501 0001642  69.4824 290.6344 15.08839938 37886,6917.880999999999,95.438,540.881,538.61,0.0
52116.0,STARLINK-3735,PAYLOAD,2022-11-14 17:50:06,15.08834123,0.000153,53.2189,115.2736,68.8623,291.2533,-4.6339e-05,-1.025e-05,0.0,0 STARLINK-3735,1 52116U 22029AE  22318.74313290 -.00001025  00000-0 -46339-4 0  9994,2 52116  53.2189 115.2736 0001530  68.8623 291.2533 15.08834123 37978,6917.898,95.438,540.822,538.705,0.0
52116.0,STARLINK-3735,PAYLOAD,2022-11-14 22:36:16,15.08834244,0.0001508,53.2189,114.3816,66.7516,293.3635,-4.548399999999999e-05,-1.012e-05,0.0,0 STARLINK-3735,1 52116U 22029AE  22318.94185319 -.00001012  00000-0 -45484-4 0  9991,2 52116  53.2189 114.3816 0001508  66.7516 293.3635 15.08834244 38005,6917.898,95.438,540.806,538.72,0.0
52116.0,STARLINK-3735,PAYLOAD,2022-11-15 12:54:44,15.08835763,0.0001437,53.219,111.7053,65.4662,294.648,5.0697e-05,5.19e-06,0.0,0 STARLINK-3735,1 52116U 22029AE  22319.53801100  .00000519  00000-0  50697-4 0  9991,2 52116  53.2190 111.7053 0001437  65.4662 294.6480 15.08835763 38098,6917.893,95.438,540.752,538.764,0.0
52116.0,STARLINK-3735,PAYLOAD,2022-11-15 17:40:53,15.08837851,0.0001450999999999,53.2191,110.8134,65.2081,294.9062,6.5299e-05,7.51e-06,0.0,0 STARLINK-3735,1 52116U 22029AE  22319.73672982  .00000751  00000-0  65299-4 0  9999,2 52116  53.2191 110.8134 0001451  65.2081 294.9062 15.08837851 38121,6917.887,95.438,540.756,538.748,0.0
52116.0,STARLINK-3735,PAYLOAD,2022-11-15 19:16:16,15.08838667,0.0001453999999999,53.2191,110.516,65.4602,294.6542,6.966100000000001e-05,8.21e-06,0.0,0 STARLINK-3735,1 52116U 22029AE  22319.80296890  .00000821  00000-0  69661-4 0  9992,2 52116  53.2191 110.5160 0001454  65.4602 294.6542 15.08838667 38138,6917.884,95.438,540.755,538.744,0.0
52116.0,STARLINK-3735,PAYLOAD,2022-11-16 14:20:54,15.08834397,0.0001406,53.2191,106.9475,65.8811,294.2328,3.5647e-05,2.79e-06,0.0,0 STARLINK-3735,1 52116U 22029AE  22320.59785395  .00000279  00000-0  35647-4 0  9997,2 52116  53.2191 106.9475 0001406  65.8811 294.2328 15.08834397 38256,6917.898,95.438,540.735,538.79,0.0
52116.0,STARLINK-3735,PAYLOAD,2022-11-16 17:31:41,15.0883035,0.0001429,53.2192,106.353,65.2356,294.8785,6.1342e-05,6.88e-06,0.0,0 STARLINK-3735,1 52116U 22029AE  22320.73033641  .00000688  00000-0  61342-4 0  9998,2 52116  53.2192 106.3530 0001429  65.2356 294.8785 15.08830350 38276,6917.91,95.438,540.763,538.786,0.0
52116.0,STARLINK-3735,PAYLOAD,2022-11-16 19:07:04,15.08831085,0.0001431999999999,53.2192,106.0557,65.0959,295.0181,6.6096e-05,7.64e-06,0.0,0 STARLINK-3735,1 52116U 22029AE  22320.79657621  .00000764  00000-0  66096-4 0  9990,2 52116  53.2192 106.0557 0001432  65.0959 295.0181 15.08831085 38283,6917.908,95.438,540.763,538.7819999999998,0.0
52116.0,STARLINK-3735,PAYLOAD,2022-11-17 09:25:32,15.08839123,0.0001406,53.2192,103.3794,63.5054,296.6083,9.8778e-05,1.284e-05,0.0,0 STARLINK-3735,1 52116U 22029AE  22321.39273228  .00001284  00000-0  98778-4 0  9994,2 52116  53.2192 103.3794 0001406  63.5054 296.6083 15.08839123 38375,6917.8830000000025,95.438,540.721,538.775,0.0
52116.0,STARLINK-3735,PAYLOAD,2022-11-17 14:11:41,15.08845606,0.0001378,53.2191,102.4874,62.7595,297.3537,6.8985e-05,8.1e-06,0.0,0 STARLINK-3735,1 52116U 22029AE  22321.59144824  .00000810  00000-0  68985-4 0  9996,2 52116  53.2191 102.4874 0001378  62.7595 297.3537 15.08845606 38401,6917.863,95.437,540.682,538.775,0.0
52116.0,STARLINK-3735,PAYLOAD,2022-11-18 02:54:45,15.08847142,0.0001355,53.2191,100.1082,63.194,296.9191,8.3317e-05,1.039e-05,0.0,0 STARLINK-3735,1 52116U 22029AE  22322.12136460  .00001039  00000-0  83317-4 0  9993,2 52116  53.2191 100.1082 0001355  63.1940 296.9191 15.08847142 38487,6917.859,95.437,540.661,538.786,0.0
52116.0,STARLINK-3735,PAYLOAD,2022-11-18 15:37:51,15.08837658,0.0001471,53.2195,97.7298,63.2034,296.9108,6.4775e-05,7.43e-06,0.0,0 STARLINK-3735,1 52116U 22029AE  22322.65129149  .00000743  00000-0  64775-4 0  9995,2 52116  53.2195  97.7298 0001471  63.2034 296.9108 15.08837658 38563,6917.888000000001,95.438,540.77,538.735,0.0
52116.0,STARLINK-3735,PAYLOAD,2022-11-19 09:07:06,15.08838806,0.000153,53.22,94.4584,64.7468,295.3683,-2.138e-05,-6.28e-06,0.0,0 STARLINK-3735,1 52116U 22029AE  22323.37993420 -.00000628  00000-0 -21380-4 0  9995,2 52116  53.2200  94.4584 0001530  64.7468 295.3683 15.08838806 38674,6917.884,95.438,540.807,538.691,0.0
